CCSDS_OMM_VERS = 2.0
CREATION_DATE  = 
ORIGINATOR     = 

OBJECT_NAME    = SL-3 R/B
OBJECT_ID      = 1982-079B
CENTER_NAME    = EARTH
REF_FRAME      = TEME
TIME_SYSTEM    = UTC
MEAN_ELEMENT_THEORY = SGP/SGP4

EPOCH          = 2025-12-23T18:42:31.639968
MEAN_MOTION    = 15.23711079
ECCENTRICITY   = .0026936
INCLINATION    = 81.1479
RA_OF_ASC_NODE = 282.6472
ARG_OF_PERICENTER = 63.5915
MEAN_ANOMALY   = 296.8077

EPHEMERIS_TYPE = 0
CLASSIFICATION_TYPE = U
NORAD_CAT_ID   = 13403
ELEMENT_SET_NO = 999
REV_AT_EPOCH   = 36613
BSTAR          = .23367E-3
MEAN_MOTION_DOT = .5694E-4
MEAN_MOTION_DDOT = 0

CCSDS_OMM_VERS = 2.0
CREATION_DATE  = 
ORIGINATOR     = 

OBJECT_NAME    = SL-14 R/B
OBJECT_ID      = 1982-092B
CENTER_NAME    = EARTH
REF_FRAME      = TEME
TIME_SYSTEM    = UTC
MEAN_ELEMENT_THEORY = SGP/SGP4

EPOCH          = 2025-12-23T03:00:41.369184
MEAN_MOTION    = 14.86565135
ECCENTRICITY   = .00199684
INCLINATION    = 82.5673
RA_OF_ASC_NODE = 212.9989
ARG_OF_PERICENTER = 191.1317
MEAN_ANOMALY   = 292.6966

EPHEMERIS_TYPE = 0
CLASSIFICATION_TYPE = U
NORAD_CAT_ID   = 13553
ELEMENT_SET_NO = 999
REV_AT_EPOCH   = 31755
BSTAR          = .47948963E-4
MEAN_MOTION_DOT = .451E-5
MEAN_MOTION_DDOT = 0

CCSDS_OMM_VERS = 2.0
CREATION_DATE  = 
ORIGINATOR     = 

OBJECT_NAME    = SL-3 R/B
OBJECT_ID      = 1983-010B
CENTER_NAME    = EARTH
REF_FRAME      = TEME
TIME_SYSTEM    = UTC
MEAN_ELEMENT_THEORY = SGP/SGP4

EPOCH          = 2025-12-23T12:47:17.395008
MEAN_MOTION    = 15.43738059
ECCENTRICITY   = .0016602
INCLINATION    = 81.1045
RA_OF_ASC_NODE = 95.4425
ARG_OF_PERICENTER = 312.8222
MEAN_ANOMALY   = 47.1625

EPHEMERIS_TYPE = 0
CLASSIFICATION_TYPE = U
NORAD_CAT_ID   = 13819
ELEMENT_SET_NO = 999
REV_AT_EPOCH   = 34618
BSTAR          = .31712E-3
MEAN_MOTION_DOT = .14434E-3
MEAN_MOTION_DDOT = 0

CCSDS_OMM_VERS = 2.0
CREATION_DATE  = 
ORIGINATOR     = 

OBJECT_NAME    = SL-3 R/B
OBJECT_ID      = 1983-075B
CENTER_NAME    = EARTH
REF_FRAME      = TEME
TIME_SYSTEM    = UTC
MEAN_ELEMENT_THEORY = SGP/SGP4

EPOCH          = 2025-12-23T19:05:11.442048
MEAN_MOTION    = 15.36348347
ECCENTRICITY   = .0023908
INCLINATION    = 97.6108
RA_OF_ASC_NODE = 354.6510
ARG_OF_PERICENTER = 137.1145
MEAN_ANOMALY   = 223.1968

EPHEMERIS_TYPE = 0
CLASSIFICATION_TYPE = U
NORAD_CAT_ID   = 14208
ELEMENT_SET_NO = 999
REV_AT_EPOCH   = 31849
BSTAR          = .30011E-3
MEAN_MOTION_DOT = .10654E-3
MEAN_MOTION_DDOT = 0

CCSDS_OMM_VERS = 2.0
CREATION_DATE  = 
ORIGINATOR     = 

OBJECT_NAME    = COSMOS 1536
OBJECT_ID      = 1984-013A
CENTER_NAME    = EARTH
REF_FRAME      = TEME
TIME_SYSTEM    = UTC
MEAN_ELEMENT_THEORY = SGP/SGP4

EPOCH          = 2025-12-22T22:15:16.304256
MEAN_MOTION    = 15.22630662
ECCENTRICITY   = .0014323
INCLINATION    = 82.5442
RA_OF_ASC_NODE = 184.0602
ARG_OF_PERICENTER = 187.8294
MEAN_ANOMALY   = 172.2722

EPHEMERIS_TYPE = 0
CLASSIFICATION_TYPE = U
NORAD_CAT_ID   = 14699
ELEMENT_SET_NO = 999
REV_AT_EPOCH   = 26093
BSTAR          = .29739E-3
MEAN_MOTION_DOT = .6966E-4
MEAN_MOTION_DDOT = 0

CCSDS_OMM_VERS = 2.0
CREATION_DATE  = 
ORIGINATOR     = 

OBJECT_NAME    = SL-14 R/B
OBJECT_ID      = 1984-027B
CENTER_NAME    = EARTH
REF_FRAME      = TEME
TIME_SYSTEM    = UTC
MEAN_ELEMENT_THEORY = SGP/SGP4

EPOCH          = 2025-12-23T07:55:32.038752
MEAN_MOTION    = 14.85885129
ECCENTRICITY   = .0016785
INCLINATION    = 82.5421
RA_OF_ASC_NODE = 316.6242
ARG_OF_PERICENTER = 222.7174
MEAN_ANOMALY   = 137.2739

EPHEMERIS_TYPE = 0
CLASSIFICATION_TYPE = U
NORAD_CAT_ID   = 14820
ELEMENT_SET_NO = 999
REV_AT_EPOCH   = 23629
BSTAR          = .54539E-4
MEAN_MOTION_DOT = .5E-5
MEAN_MOTION_DDOT = 0

CCSDS_OMM_VERS = 2.0
CREATION_DATE  = 
ORIGINATOR     = 

OBJECT_NAME    = SL-8 R/B
OBJECT_ID      = 1985-006B
CENTER_NAME    = EARTH
REF_FRAME      = TEME
TIME_SYSTEM    = UTC
MEAN_ELEMENT_THEORY = SGP/SGP4

EPOCH          = 2025-12-23T02:43:04.140768
MEAN_MOTION    = 14.37727180
ECCENTRICITY   = .00191353
INCLINATION    = 74.0460
RA_OF_ASC_NODE = 42.0494
ARG_OF_PERICENTER = 332.0988
MEAN_ANOMALY   = 58.5548

EPHEMERIS_TYPE = 0
CLASSIFICATION_TYPE = U
NORAD_CAT_ID   = 15483
ELEMENT_SET_NO = 999
REV_AT_EPOCH   = 14302
BSTAR          = .97783724E-4
MEAN_MOTION_DOT = .268E-5
MEAN_MOTION_DDOT = 0

CCSDS_OMM_VERS = 2.0
CREATION_DATE  = 
ORIGINATOR     = 

OBJECT_NAME    = SL-12 R/B(2)
OBJECT_ID      = 1985-042D
CENTER_NAME    = EARTH
REF_FRAME      = TEME
TIME_SYSTEM    = UTC
MEAN_ELEMENT_THEORY = SGP/SGP4

EPOCH          = 2025-12-23T15:21:20.788416
MEAN_MOTION    = 14.21955117
ECCENTRICITY   = .0037335
INCLINATION    = 71.1072
RA_OF_ASC_NODE = 248.3929
ARG_OF_PERICENTER = 245.4587
MEAN_ANOMALY   = 124.9497

EPHEMERIS_TYPE = 0
CLASSIFICATION_TYPE = U
NORAD_CAT_ID   = 15772
ELEMENT_SET_NO = 999
REV_AT_EPOCH   = 10358
BSTAR          = .36444E-4
MEAN_MOTION_DOT = .33E-6
MEAN_MOTION_DDOT = 0

CCSDS_OMM_VERS = 2.0
CREATION_DATE  = 
ORIGINATOR     = 

OBJECT_NAME    = SL-14 R/B
OBJECT_ID      = 1985-069B
CENTER_NAME    = EARTH
REF_FRAME      = TEME
TIME_SYSTEM    = UTC
MEAN_ELEMENT_THEORY = SGP/SGP4

EPOCH          = 2025-12-23T17:48:46.111968
MEAN_MOTION    = 14.86336458
ECCENTRICITY   = .0020325
INCLINATION    = 82.5273
RA_OF_ASC_NODE = 96.3600
ARG_OF_PERICENTER = 84.6821
MEAN_ANOMALY   = 275.6714

EPHEMERIS_TYPE = 0
CLASSIFICATION_TYPE = U
NORAD_CAT_ID   = 15945
ELEMENT_SET_NO = 999
REV_AT_EPOCH   = 16155
BSTAR          = .56804E-4
MEAN_MOTION_DOT = .527E-5
MEAN_MOTION_DDOT = 0

CCSDS_OMM_VERS = 2.0
CREATION_DATE  = 
ORIGINATOR     = 

OBJECT_NAME    = SL-16 R/B
OBJECT_ID      = 1985-097B
CENTER_NAME    = EARTH
REF_FRAME      = TEME
TIME_SYSTEM    = UTC
MEAN_ELEMENT_THEORY = SGP/SGP4

EPOCH          = 2025-12-23T05:43:20.728704
MEAN_MOTION    = 14.16587754
ECCENTRICITY   = .00073837
INCLINATION    = 71.0038
RA_OF_ASC_NODE = 301.5003
ARG_OF_PERICENTER = 353.9692
MEAN_ANOMALY   = 108.7310

EPHEMERIS_TYPE = 0
CLASSIFICATION_TYPE = U
NORAD_CAT_ID   = 16182
ELEMENT_SET_NO = 999
REV_AT_EPOCH   = 7640
BSTAR          = -.39808203E-4
MEAN_MOTION_DOT = -.127E-5
MEAN_MOTION_DDOT = 0

CCSDS_OMM_VERS = 2.0
CREATION_DATE  = 
ORIGINATOR     = 

OBJECT_NAME    = SL-14 R/B
OBJECT_ID      = 1986-006B
CENTER_NAME    = EARTH
REF_FRAME      = TEME
TIME_SYSTEM    = UTC
MEAN_ELEMENT_THEORY = SGP/SGP4

EPOCH          = 2025-12-23T09:38:22.083072
MEAN_MOTION    = 14.86684343
ECCENTRICITY   = .0077106
INCLINATION    = 82.5269
RA_OF_ASC_NODE = 331.5184
ARG_OF_PERICENTER = 164.4110
MEAN_ANOMALY   = 195.9509

EPHEMERIS_TYPE = 0
CLASSIFICATION_TYPE = U
NORAD_CAT_ID   = 16496
ELEMENT_SET_NO = 999
REV_AT_EPOCH   = 13787
BSTAR          = .57579E-4
MEAN_MOTION_DOT = .567E-5
MEAN_MOTION_DDOT = 0

CCSDS_OMM_VERS = 2.0
CREATION_DATE  = 
ORIGINATOR     = 

OBJECT_NAME    = COSMOS 1743
OBJECT_ID      = 1986-034A
CENTER_NAME    = EARTH
REF_FRAME      = TEME
TIME_SYSTEM    = UTC
MEAN_ELEMENT_THEORY = SGP/SGP4

EPOCH          = 2025-12-23T11:35:48.835104
MEAN_MOTION    = 15.52740698
ECCENTRICITY   = .0005005
INCLINATION    = 82.5349
RA_OF_ASC_NODE = 153.4277
ARG_OF_PERICENTER = 207.6924
MEAN_ANOMALY   = 152.4062

EPHEMERIS_TYPE = 0
CLASSIFICATION_TYPE = U
NORAD_CAT_ID   = 16719
ELEMENT_SET_NO = 999
REV_AT_EPOCH   = 16840
BSTAR          = .49957E-3
MEAN_MOTION_DOT = .30971E-3
MEAN_MOTION_DDOT = 0

