SL-3 R/B                
1 13403U 82079B   25357.77953287  .00005694  00000+0  23367-3 0  9994
2 13403  81.1479 282.6472 0026936  63.5915 296.8077 15.23711079366133
SL-14 R/B               
1 13553U 82092B   25357.12547881  .00000451  00000+0  47949-4 0  9992
2 13553  82.5673 212.9989 0019968 191.1317 292.6966 14.86565135317551
SL-3 R/B                
1 13819U 83010B   25357.53284022  .00014434  00000+0  31712-3 0  9994
2 13819  81.1045  95.4425 0016602 312.8222  47.1625 15.43738059346189
SL-3 R/B                
1 14208U 83075B   25357.79527132  .00010654  00000+0  30011-3 0  9999
2 14208  97.6108 354.6510 0023908 137.1145 223.1968 15.36348347318496
COSMOS 1536             
1 14699U 84013A   25356.92727204  .00006966  00000+0  29739-3 0  9998
2 14699  82.5442 184.0602 0014323 187.8294 172.2722 15.22630662260935
SL-14 R/B               
1 14820U 84027B   25357.33023193  .00000500  00000+0  54539-4 0  9996
2 14820  82.5421 316.6242 0016785 222.7174 137.2739 14.85885129236290
SL-8 R/B                
1 15483U 85006B   25357.11324237  .00000268  00000+0  97784-4 0  9999
2 15483  74.0460  42.0494 0019135 332.0988  58.5548 14.37727180143024
SL-12 R/B(2)            
1 15772U 85042D   25357.63982394  .00000033  00000+0  36444-4 0  9997
2 15772  71.1072 248.3929 0037335 245.4587 124.9497 14.21955117103584
SL-14 R/B               
1 15945U 85069B   25357.74220037  .00000527  00000+0  56804-4 0  9999
2 15945  82.5273  96.3600 0020325  84.6821 275.6714 14.86336458161556
SL-16 R/B               
1 16182U 85097B   25357.23843436 -.00000127  00000+0 -39808-4 0  9995
2 16182  71.0038 301.5003 0007383 353.9692 108.7310 14.16587754 76404
SL-14 R/B               
1 16496U 86006B   25357.40164448  .00000567  00000+0  57579-4 0  9993
2 16496  82.5269 331.5184 0077106 164.4110 195.9509 14.86684343137874
COSMOS 1743             
1 16719U 86034A   25357.48320411  .00030971  00000+0  49957-3 0  9996
2 16719  82.5349 153.4277 0005005 207.6924 152.4062 15.52740698168402
